{"type": "FeatureCollection", "features": [ {"type": "Feature", "properties": {"norad_id": 30224, "name": "FENGYUN 1C DEB", "group": "fengyun-1c-debris", "lat": -80.43464942505429, "lon": 136.7520491032849, "alt_km": 871.9123737674818, "timestamp": "2025-12-26T09:30:53.912890+00:00", "meta": {"OBJECT_NAME": "FENGYUN 1C DEB", "OBJECT_ID": "1999-025WH", "EPOCH": "2025-12-26T01:24:00.240768", "MEAN_MOTION": 13.89878344, "ECCENTRICITY": 0.0110936, "INCLINATION": 99.4824, "RA_OF_ASC_NODE": 39.0565, "ARG_OF_PERICENTER": 307.4275, "MEAN_ANOMALY": 71.2187, "EPHEMERIS_TYPE": 0, "CLASSIFICATION_TYPE": "U", "NORAD_CAT_ID": 30224, "ELEMENT_SET_NO": 999, "REV_AT_EPOCH": 95926, "BSTAR": 0.00033667, "MEAN_MOTION_DOT": 3.88e-06, "MEAN_MOTION_DDOT": 0}, "tle": {"line1": "1 30224U 99025WH  25360.05833612  .00000388  00000+0  33667-3 0  9996", "line2": "2 30224  99.4824  39.0565 0110936 307.4275  71.2187 13.89878344959267"}}, "geometry": {"type": "Point", "coordinates": [136.7520491032849, -80.43464942505429]}}, {"type": "Feature", "properties": {"norad_id": 30225, "name": "FENGYUN 1C DEB", "group": "fengyun-1c-debris", "lat": -59.584353028784285, "lon": -168.27412236271243, "alt_km": 919.066071458612, "timestamp": "2025-12-26T09:30:53.912901+00:00", "meta": {"OBJECT_NAME": "FENGYUN 1C DEB", "OBJECT_ID": "1999-025WJ", "EPOCH": "2025-12-24T19:53:04.274880", "MEAN_MOTION": 14.15192277, "ECCENTRICITY": 0.01001984, "INCLINATION": 98.6587, "RA_OF_ASC_NODE": 25.2479, "ARG_OF_PERICENTER": 51.6401, "MEAN_ANOMALY": 125.6348, "EPHEMERIS_TYPE": 0, "CLASSIFICATION_TYPE": "U", "NORAD_CAT_ID": 30225, "ELEMENT_SET_NO": 999, "REV_AT_EPOCH": 97707, "BSTAR": 0.0001525867, "MEAN_MOTION_DOT": 2.69e-06, "MEAN_MOTION_DDOT": 0}, "tle": {"line1": "1 30225U 99025WJ  25358.82852170  .00000269  00000+0  15259-3 0  9994", "line2": "2 30225  98.6587  25.2479 0100198  51.6401 125.6348 14.15192277977070"}}, "geometry": {"type": "Point", "coordinates": [-168.27412236271243, -59.584353028784285]}}, {"type": "Feature", "properties": {"norad_id": 30229, "name": "FENGYUN 1C DEB", "group": "fengyun-1c-debris", "lat": -12.027490324453227, "lon": -120.64620442140416, "alt_km": 720.3522179877127, "timestamp": "2025-12-26T09:30:53.912911+00:00", "meta": {"OBJECT_NAME": "FENGYUN 1C DEB", "OBJECT_ID": "1999-025WN", "EPOCH": "2025-12-26T03:49:10.598016", "MEAN_MOTION": 14.60764039, "ECCENTRICITY": 0.0036815, "INCLINATION": 99.061, "RA_OF_ASC_NODE": 61.0428, "ARG_OF_PERICENTER": 359.0084, "MEAN_ANOMALY": 25.9381, "EPHEMERIS_TYPE": 0, "CLASSIFICATION_TYPE": "U", "NORAD_CAT_ID": 30229, "ELEMENT_SET_NO": 999, "REV_AT_EPOCH": 99122, "BSTAR": 0.0016862, "MEAN_MOTION_DOT": 8.259e-05, "MEAN_MOTION_DDOT": 0}, "tle": {"line1": "1 30229U 99025WN  25360.15915044  .00008259  00000+0  16862-2 0  9994", "line2": "2 30229  99.0610  61.0428 0036815 359.0084  25.9381 14.60764039991227"}}, "geometry": {"type": "Point", "coordinates": [-120.64620442140416, -12.027490324453227]}}, {"type": "Feature", "properties": {"norad_id": 30231, "name": "FENGYUN 1C DEB", "group": "fengyun-1c-debris", "lat": 7.890033322258564, "lon": -133.86670127688325, "alt_km": 947.8901615265095, "timestamp": "2025-12-26T09:30:53.912921+00:00", "meta": {"OBJECT_NAME": "FENGYUN 1C DEB", "OBJECT_ID": "1999-025WQ", "EPOCH": "2025-12-26T02:09:07.640928", "MEAN_MOTION": 14.11671, "ECCENTRICITY": 0.012781, "INCLINATION": 98.8038, "RA_OF_ASC_NODE": 44.6016, "ARG_OF_PERICENTER": 351.3117, "MEAN_ANOMALY": 62.4078, "EPHEMERIS_TYPE": 0, "CLASSIFICATION_TYPE": "U", "NORAD_CAT_ID": 30231, "ELEMENT_SET_NO": 999, "REV_AT_EPOCH": 97208, "BSTAR": 0.00045851, "MEAN_MOTION_DOT": 8.57e-06, "MEAN_MOTION_DDOT": 0}, "tle": {"line1": "1 30231U 99025WQ  25360.08967177  .00000857  00000+0  45851-3 0  9990", "line2": "2 30231  98.8038  44.6016 0127810 351.3117  62.4078 14.11671000972082"}}, "geometry": {"type": "Point", "coordinates": [-133.86670127688325, 7.890033322258564]}}, {"type": "Feature", "properties": {"norad_id": 30232, "name": "FENGYUN 1C DEB", "group": "fengyun-1c-debris", "lat": 34.894865405437706, "lon": 27.430840613234754, "alt_km": 769.9991535126919, "timestamp": "2025-12-26T09:30:53.912931+00:00", "meta": {"OBJECT_NAME": "FENGYUN 1C DEB", "OBJECT_ID": "1999-025WR", "EPOCH": "2025-12-26T01:20:37.444416", "MEAN_MOTION": 14.63702976, "ECCENTRICITY": 0.013513, "INCLINATION": 98.6922, "RA_OF_ASC_NODE": 200.9466, "ARG_OF_PERICENTER": 308.5268, "MEAN_ANOMALY": 203.4907, "EPHEMERIS_TYPE": 0, "CLASSIFICATION_TYPE": "U", "NORAD_CAT_ID": 30232, "ELEMENT_SET_NO": 999, "REV_AT_EPOCH": 99946, "BSTAR": 0.00083708, "MEAN_MOTION_DOT": 4.916e-05, "MEAN_MOTION_DDOT": 0}, "tle": {"line1": "1 30232U 99025WR  25360.05598894  .00004916  00000+0  83708-3 0  9997", "line2": "2 30232  98.6922 200.9466 0135130 308.5268 203.4907 14.63702976999467"}}, "geometry": {"type": "Point", "coordinates": [27.430840613234754, 34.894865405437706]}}, {"type": "Feature", "properties": {"norad_id": 30234, "name": "FENGYUN 1C DEB", "group": "fengyun-1c-debris", "lat": -81.36069039647053, "lon": 100.21203239323302, "alt_km": 871.504402841314, "timestamp": "2025-12-26T09:30:53.912941+00:00", "meta": {"OBJECT_NAME": "FENGYUN 1C DEB", "OBJECT_ID": "1999-025WT", "EPOCH": "2025-12-25T22:24:25.454016", "MEAN_MOTION": 14.16882078, "ECCENTRICITY": 0.0066627, "INCLINATION": 98.6335, "RA_OF_ASC_NODE": 10.3237, "ARG_OF_PERICENTER": 37.7195, "MEAN_ANOMALY": 33.5222, "EPHEMERIS_TYPE": 0, "CLASSIFICATION_TYPE": "U", "NORAD_CAT_ID": 30234, "ELEMENT_SET_NO": 999, "REV_AT_EPOCH": 97643, "BSTAR": 0.00032844, "MEAN_MOTION_DOT": 6.31e-06, "MEAN_MOTION_DDOT": 0}, "tle": {"line1": "1 30234U 99025WT  25359.93362794  .00000631  00000+0  32844-3 0  9997", "line2": "2 30234  98.6335  10.3237 0066627  37.7195  33.5222 14.16882078976434"}}, "geometry": {"type": "Point", "coordinates": [100.21203239323302, -81.36069039647053]}}, {"type": "Feature", "properties": {"norad_id": 30235, "name": "FENGYUN 1C DEB", "group": "fengyun-1c-debris", "lat": -14.51971427464574, "lon": -164.11852248464032, "alt_km": 757.0908629273936, "timestamp": "2025-12-26T09:30:53.912951+00:00", "meta": {"OBJECT_NAME": "FENGYUN 1C DEB", "OBJECT_ID": "1999-025WU", "EPOCH": "2025-12-26T00:19:58.975392", "MEAN_MOTION": 14.08794492, "ECCENTRICITY": 0.0153867, "INCLINATION": 98.7488, "RA_OF_ASC_NODE": 17.7957, "ARG_OF_PERICENTER": 200.9153, "MEAN_ANOMALY": 214.5855, "EPHEMERIS_TYPE": 0, "CLASSIFICATION_TYPE": "U", "NORAD_CAT_ID": 30235, "ELEMENT_SET_NO": 999, "REV_AT_EPOCH": 97080, "BSTAR": 0.00029557, "MEAN_MOTION_DOT": 5.26e-06, "MEAN_MOTION_DDOT": 0}, "tle": {"line1": "1 30235U 99025WU  25360.01387703  .00000526  00000+0  29557-3 0  9996", "line2": "2 30235  98.7488  17.7957 0153867 200.9153 214.5855 14.08794492970807"}}, "geometry": {"type": "Point", "coordinates": [-164.11852248464032, -14.51971427464574]}}, {"type": "Feature", "properties": {"norad_id": 30237, "name": "FENGYUN 1C DEB", "group": "fengyun-1c-debris", "lat": -81.11848641202552, "lon": -160.23874928875009, "alt_km": 751.5719374041564, "timestamp": "2025-12-26T09:30:53.912962+00:00", "meta": {"OBJECT_NAME": "FENGYUN 1C DEB", "OBJECT_ID": "1999-025WW", "EPOCH": "2025-12-25T19:30:23.037696", "MEAN_MOTION": 14.41073296, "ECCENTRICITY": 0.00150419, "INCLINATION": 98.8251, "RA_OF_ASC_NODE": 102.9807, "ARG_OF_PERICENTER": 265.0707, "MEAN_ANOMALY": 217.5744, "EPHEMERIS_TYPE": 0, "CLASSIFICATION_TYPE": "U", "NORAD_CAT_ID": 30237, "ELEMENT_SET_NO": 999, "REV_AT_EPOCH": 97886, "BSTAR": 0.0024962756, "MEAN_MOTION_DOT": 8.008e-05, "MEAN_MOTION_DDOT": 0}, "tle": {"line1": "1 30237U 99025WW  25359.81276664  .00008008  00000+0  24963-2 0  9995", "line2": "2 30237  98.8251 102.9807 0015041 265.0707 217.5744 14.41073296978860"}}, "geometry": {"type": "Point", "coordinates": [-160.23874928875009, -81.11848641202552]}}, {"type": "Feature", "properties": {"norad_id": 30239, "name": "FENGYUN 1C DEB", "group": "fengyun-1c-debris", "lat": 10.441749427675651, "lon": 142.5710965102565, "alt_km": 843.1078421791017, "timestamp": "2025-12-26T09:30:53.912972+00:00", "meta": {"OBJECT_NAME": "FENGYUN 1C DEB", "OBJECT_ID": "1999-025WY", "EPOCH": "2025-12-25T08:09:34.826688", "MEAN_MOTION": 11.38313198, "ECCENTRICITY": 0.1353739, "INCLINATION": 99.5606, "RA_OF_ASC_NODE": 143.6441, "ARG_OF_PERICENTER": 7.9122, "MEAN_ANOMALY": 354.1101, "EPHEMERIS_TYPE": 0, "CLASSIFICATION_TYPE": "U", "NORAD_CAT_ID": 30239, "ELEMENT_SET_NO": 999, "REV_AT_EPOCH": 54678, "BSTAR": 0.027272, "MEAN_MOTION_DOT": 9.342e-05, "MEAN_MOTION_DDOT": 0}, "tle": {"line1": "1 30239U 99025WY  25359.33998642  .00009342  00000+0  27272-1 0  9998", "line2": "2 30239  99.5606 143.6441 1353739   7.9122 354.1101 11.38313198546782"}}, "geometry": {"type": "Point", "coordinates": [142.5710965102565, 10.441749427675651]}}, {"type": "Feature", "properties": {"norad_id": 30241, "name": "FENGYUN 1C DEB", "group": "fengyun-1c-debris", "lat": 78.5308455599307, "lon": 6.088548331309764, "alt_km": 789.9135085642984, "timestamp": "2025-12-26T09:30:53.912982+00:00", "meta": {"OBJECT_NAME": "FENGYUN 1C DEB", "OBJECT_ID": "1999-025XA", "EPOCH": "2025-12-25T20:09:23.738112", "MEAN_MOTION": 14.09559236, "ECCENTRICITY": 0.01465017, "INCLINATION": 99.1491, "RA_OF_ASC_NODE": 132.9348, "ARG_OF_PERICENTER": 44.6471, "MEAN_ANOMALY": 108.0727, "EPHEMERIS_TYPE": 0, "CLASSIFICATION_TYPE": "U", "NORAD_CAT_ID": 30241, "ELEMENT_SET_NO": 999, "REV_AT_EPOCH": 97096, "BSTAR": 0.00027273818, "MEAN_MOTION_DOT": 4.82e-06, "MEAN_MOTION_DDOT": 0}, "tle": {"line1": "1 30241U 99025XA  25359.83985808  .00000482  00000+0  27274-3 0  9996", "line2": "2 30241  99.1491 132.9348 0146501  44.6471 108.0727 14.09559236970968"}}, "geometry": {"type": "Point", "coordinates": [6.088548331309764, 78.5308455599307]}}]}